OBJECT B                
1 51825U 22019B   25089.80404911  .00027098  00000+0  75393-3 0  9991
2 51825  97.3904 165.8847 0009586 303.0473  56.9850 15.36759928171010
